OUFTI-1                 
1 41458U 16025C   21166.65782463  .00002531  00000-0  12399-3 0  9991
2 41458  98.1441 303.6816 0159371  65.9907 295.7910 15.08704463282205
E-ST@R-II               
1 41459U 16025D   21166.82346248  .00002742  00000-0  13531-3 0  9991
2 41459  98.1427 302.9235 0161408  68.4016 293.4312 15.08125928282170
AAUSAT 4                
1 41460U 16025E   21166.85576366  .00003789  00000-0  17723-3 0  9991
2 41460  98.1426 306.8268 0147808  52.2037 309.2470 15.11222273282471
AIST-2D (RS-48)         
1 41465U 16026B   21166.82950050  .00002542  00000-0  73929-4 0  9997
2 41465  97.1072  50.9958 0011884  29.1916  35.0056 15.36273987287180
SAMSAT-218D             
1 41466U 16026C   21166.81207002  .00019131  00000-0  28134-3 0  9998
2 41466  97.1575  75.2190 0002866 333.9979  97.5592 15.55499595288581
NUSAT-1 (FRESCO)        
1 41557U 16033B   21166.96232806  .00002185  00000-0  79073-4 0  9993
2 41557  97.3935 260.9059 0011404 236.3637 240.1832 15.29458767281309
NUSAT-2 (BATATA)        
1 41558U 16033C   21166.96455560  .00002163  00000-0  73478-4 0  9997
2 41558  97.4048 264.7206 0010619 228.0735 245.0793 15.31548788281492
CARTOSAT-2C             
1 41599U 16040A   21166.81798557  .00000850  00000-0  43445-4 0  9992
2 41599  97.3989 226.1939 0014641  29.2010 104.8786 15.19270393276264
SATHYABAMASAT           
1 41600U 16040B   21166.89847321  .00002295  00000-0  91263-4 0  9993
2 41600  97.2717 224.1273 0012341 351.6848   8.4184 15.26218156276910
LAPAN-A3                
1 41603U 16040E   21166.95153159  .00000180  00000-0  11409-4 0  9997
2 41603  97.2557 213.9410 0013755  15.7686 106.5450 15.20038216276357
BIROS                   
1 41604U 16040F   21166.88803486  .00000646  00000-0  30692-4 0  9997
2 41604  97.2624 219.3833 0011804 354.7428   5.3683 15.22594866276663
SWAYAM                  
1 41607U 16040J   21166.92336162  .00002167  00000-0  87236-4 0  9993
2 41607  97.2669 222.9461 0012031 352.1118   7.9929 15.25865802276815
BEESAT-4                
1 41619U 16040W   21166.62295674  .00001891  00000-0  77284-4 0  9990
2 41619  97.2689 222.7648 0009963 347.5854  12.5137 15.25528202264731
3CAT-2                  
1 41732U 16051B   21166.75206810  .00001855  00000-0  68603-4 0  9991
2 41732  97.3779  87.0453 0013267 146.3500 267.3988 15.28898948269244
PRATHAM                 
1 41783U 16059A   21166.68666398  .00000063  00000-0  21336-4 0  9990
2 41783  97.9640 216.8539 0032183 250.7187 109.0533 14.63143530251998
ALSAT 1N                
1 41789U 16059G   21166.86678079  .00000112  00000-0  30017-4 0  9996
2 41789  97.9691 220.7150 0027059 234.7487 125.1184 14.64426851252212
LISHUI 1-01             
1 41845U 16066E   21166.81956864  .00006497  00000-0  82465-3 0  9998
2 41845  98.7337 270.1723 0272507 125.3632 237.3388 14.59227894243169
CARTOSAT-2D             
1 41948U 17008A   21166.89528777  .00000664  00000-0  34712-4 0  9998
2 41948  97.4414 227.2316 0008042 155.3046 204.8568 15.19259560240145
NAYIF-1 (EO-88)         
1 42017U 17008BX  21166.66211778  .00002212  00000-0  83142-4 0  9993
2 42017  97.3153 234.2938 0007691 110.9245 249.2819 15.28186320240984
ZHUHAI-1 02 (CAS-4B)    
1 42759U 17034B   21166.51602711  .00000314  00000-0  32169-4 0  9994
2 42759  43.0164 191.7345 0007725 159.6054 327.1866 15.10227660220858
ZHUHAI-1 01 (CAS-4A)    
1 42761U 17034D   21166.77946225  .00000269  00000-0  29405-4 0  9994
2 42761  43.0161 189.3409 0008154 162.3499   6.9358 15.10314505220890
UCLSAT                  
1 42765U 17036A   21166.81677080  .00001734  00000-0  72470-4 0  9993
2 42765  97.2489 216.4263 0011029 173.9359 186.2015 15.24864352221928
NIUSAT                  
1 42766U 17036B   21166.67232700  .00001380  00000-0  61898-4 0  9993
2 42766  97.2498 212.7085 0015142 175.2828 184.8554 15.22736622220945
CARTOSAT-2E             
1 42767U 17036C   21166.73755226  .00000728  00000-0  37863-4 0  9994
2 42767  97.5039 225.7616 0007892 205.8329 303.0046 15.19216389220684
LITUANICASAT-2          
1 42768U 17036D   21166.70338291  .00002971  00000-0  11694-3 0  9996
2 42768  97.2563 217.1116 0014296 164.9600 195.2067 15.26309393221206
AALTO-1                 
1 42775U 17036L   21166.90791856  .00001092  00000-0  49701-4 0  9990
2 42775  97.2467 213.1866 0013685 172.9950 187.1481 15.22685885220964
URSA MAIOR              
1 42776U 17036M   21166.84494630  .00001247  00000-0  55882-4 0  9993
2 42776  97.2482 213.5907 0013481 172.5357 187.6084 15.22948805220972
COMPASS 2               
1 42777U 17036N   21166.87279306  .00002522  00000-0  10157-3 0  9990
2 42777  97.2546 217.4383 0012173 164.9272 195.2332 15.25702285221170
MAX VALIER SAT          
1 42778U 17036P   21166.92471727  .00001363  00000-0  59678-4 0  9992
2 42778  97.2547 215.5858 0012056 173.0810 187.0596 15.23613138221051
PEGASUS                 
1 42784U 17036V   21166.86186314  .00001659  00000-0  70328-4 0  9990
2 42784  97.2500 215.9949 0011510 176.4121 183.7201 15.24437209221115
NUDTSAT                 
1 42787U 17036Y   21166.93589542  .00002531  00000-0  99976-4 0  9991
2 42787  97.2548 218.4649 0009724 169.1376 191.0088 15.26370494221108
SUCHAI                  
1 42788U 17036Z   21166.86175194  .00002041  00000-0  83921-4 0  9997
2 42788  97.2507 216.9811 0011150 172.8834 187.2565 15.25229418221244
SKCUBE                  
1 42789U 17036AA  21166.69377084  .00001766  00000-0  73557-4 0  9998
2 42789  97.2501 216.5318 0011017 174.0803 186.0567 15.24964413221125
VZLUSAT-1               
1 42790U 17036AB  21166.86436666  .00002655  00000-0  10479-3 0  9992
2 42790  97.2531 218.3862 0010608 168.5531 191.5952 15.26351387221249
ROBUSTA-1B              
1 42792U 17036AD  21166.92532844  .00001941  00000-0  80000-4 0  9991
2 42792  97.2504 217.1347 0010638 172.8615 187.2777 15.25201371221197
D-SAT                   
1 42794U 17036AF  21166.88254525  .00000305  00000-0  31694-4 0  9993
2 42794  97.4608 186.8585 0124268 230.7498 128.2643 14.91577105216824
NORSAT 2                
1 42828U 17042D   21166.89183208  .00000218  00000-0  26781-4 0  9992
2 42828  97.4780  37.9318 0015076 144.8333 215.3885 14.91858918213504
TECHNOSAT               
1 42829U 17042E   21166.70975831  .00000295  00000-0  34792-4 0  9990
2 42829  97.4693  36.3409 0014909 147.5685 212.6454 14.91289357213424
2017-042F               
1 42830U 17042F   21166.86620977  .00001007  00000-0  10216-3 0  9993
2 42830  97.4814  39.1076 0014901 139.1630 221.0709 14.92883223213566
FLYING LAPTOP           
1 42831U 17042G   21166.81724220  .00000178  00000-0  23054-4 0  9998
2 42831  97.4708  36.6649 0014864 147.3926 212.8205 14.91304898213445
CORVUS BC2              
1 42846U 17042X   21166.89031178 -.00000004  00000-0  47935-5 0  9999
2 42846  97.4728  38.9923 0010569 136.6722 223.5330 14.92302345213608
CORVUS BC1              
1 42847U 17042Y   21166.59300583  .00000376  00000-0  41859-4 0  9995
2 42847  97.4731  38.9480 0010224 136.5691 223.6336 14.92404147213568
SIMPL                   
1 42983U 98067NF  21166.86196777  .00007501  00000-0  74733-4 0  9994
2 42983  51.6363 267.4649 0003292 348.4988  11.5933 15.66838618207159
CZ-4C R/B               
1 43012U 17072C   21166.90992406  .00000032  00000-0  18412-4 0  9997
2 43012  98.7285 181.5070 0127439 358.1485   1.9222 14.56174680190517
RADFXSAT (FOX-1B)       
1 43017U 17073E   21166.71018766  .00000637  00000-0  55004-4 0  9999
2 43017  97.7071  70.7662 0253716 306.3272  51.4754 14.79564833192865
EAGLESAT 1              
1 43018U 17073F   21166.67824039  .00001058  00000-0  85994-4 0  9992
2 43018  97.7080  71.6205 0250267 303.1019  54.6392 14.80629324192784
ECAMSAT                 
1 43019U 98067NG  21166.91193790  .00025090  00000-0  13876-3 0  9996
2 43019  51.6361 232.5625 0003819 346.0963  13.9933 15.79441210289942
INS-1C                  
1 43116U 18004F   21166.74557186  .00001597  00000-0  66517-4 0  9998
2 43116  97.4133 241.2405 0008481 197.0968 162.9986 15.25164661190382
FLOCK 3P'-3             
1 43119U 18004J   21166.70784186  .00001239  00000-0  53630-4 0  9994
2 43119  97.4126 240.1017 0009081 207.2228 152.8535 15.24270365190313
FLOCK 3P'-2             
1 43120U 18004K   21166.74875868  .00000951  00000-0  42250-4 0  9994
2 43120  97.4133 239.9414 0009088 207.6027 152.4729 15.23942961190305
FLOCK 3P'-1             
1 43121U 18004L   21166.78117975  .00003332  00000-0  12791-3 0  9999
2 43121  97.4124 241.8363 0008503 199.5086 160.5829 15.27139701190367
FLOCK 3P'-4             
1 43122U 18004M   21166.67851924  .00000902  00000-0  40197-4 0  9999
2 43122  97.4143 239.9775 0008847 209.7991 150.2744 15.23971217190290
MICROMAS-2A             
1 43131U 18004W   21166.74601801  .00002783  00000-0  10650-3 0  9993
2 43131  97.4109 242.6794 0007925 197.5137 162.5830 15.27394895190507
PICSAT                  
1 43132U 18004X   21166.74679353  .00001639  00000-0  66825-4 0  9996
2 43132  97.4084 241.3043 0008317 204.1411 155.9439 15.25865766190429
CNUSAIL-1               
1 43133U 18004Y   21166.77337925  .00001337  00000-0  56659-4 0  9995
2 43133  97.4064 240.3468 0008397 207.2025 152.8774 15.24861109190379
2018-004Z               
1 43134U 18004Z   21166.73086816  .00001677  00000-0  69073-4 0  9993
2 43134  97.4080 240.9771 0008168 205.8015 154.2817 15.25477752190406
FOX-1D (AO-92)          
1 43137U 18004AC  21166.69270893  .00001484  00000-0  61859-4 0  9991
2 43137  97.4066 240.7418 0007952 207.4764 152.6054 15.25260177190392
STEP CUBE LAB           
1 43138U 18004AD  21166.73810156  .00002358  00000-0  91820-4 0  9991
2 43138  97.4107 242.5181 0007745 202.3046 157.7857 15.26966654190495
XIAOXIANG-2             
1 43155U 18008A   21166.81481935  .00000969  00000-0  59260-4 0  9990
2 43155  97.4013 231.8315 0016591 340.2683 156.2041 15.12445709187828
